OBJECT_NAME,OBJECT_ID,EPOCH,MEAN_MOTION,ECCENTRICITY,INCLINATION,RA_OF_ASC_NODE,ARG_OF_PERICENTER,MEAN_ANOMALY,EPHEMERIS_TYPE,CLASSIFICATION_TYPE,NORAD_CAT_ID,ELEMENT_SET_NO,REV_AT_EPOCH,BSTAR,MEAN_MOTION_DOT,MEAN_MOTION_DDOT
ONEWEB-0063,2020-020AA,2026-06-04T15:52:15.167424,13.11419006,.0002103,87.8906,23.5605,94.9954,265.1414,0,U,45448,999,30105,-.14064E-2,-.486E-5,0
ONEWEB-0019,2020-020AB,2026-06-04T03:58:57.401760,13.11416222,.0001659,87.8901,23.6462,84.1593,275.9724,0,U,45449,999,30083,.14918E-2,.541E-5,0
ONEWEB-0094,2020-020AC,2026-06-04T03:24:20.748384,13.17650580,.0001675,87.9154,8.4429,79.2649,280.8671,0,U,45450,999,30459,-.53088E-5,.11E-6,0
ONEWEB-0087,2020-020AD,2026-06-04T16:06:30.407328,13.11417638,.0002213,87.8956,23.5254,66.0551,294.0808,0,U,45451,999,30094,-.21394E-2,-.746E-5,0
ONEWEB-0082,2020-020AE,2026-06-04T16:01:38.137728,13.11419024,.0002138,87.8887,23.5528,72.4755,287.6606,0,U,45452,999,30103,-.2962E-3,-.92E-6,0
ONEWEB-0050,2020-020AF,2026-06-04T15:41:26.735424,14.90326569,.0005008,88.9296,234.9111,52.4971,307.6712,0,U,45453,999,33851,.30237E-3,.2959E-4,0
ONEWEB-0034,2020-020AG,2026-06-04T04:04:15.434976,13.10933107,.000176,87.8904,23.6583,84.5723,275.5605,0,U,45454,999,30088,.15823E-2,.57E-5,0
ONEWEB-0060,2020-020AH,2026-06-04T15:50:49.443072,13.11416908,.0001886,87.8897,23.5595,50.6628,309.4667,0,U,45455,999,30090,-.14824E-2,-.513E-5,0
ONEWEB-0086,2020-020AJ,2026-06-04T04:21:05.655744,13.11432808,.0001372,87.8930,23.6533,55.8623,304.2635,0,U,45456,999,30090,-.16912E-2,-.587E-5,0
ONEWEB-0088,2020-020AK,2026-06-04T03:49:23.716128,13.11417195,.0002245,87.8919,23.6256,84.8614,275.2770,0,U,45457,999,30083,.15093E-2,.548E-5,0
ONEWEB-0102,2020-100A,2026-06-04T00:30:29.203776,13.12442743,.00014706,87.8941,353.2947,88.0745,272.0552,0,U,47258,999,26300,-.12268145E-3,-.31E-6,0
ONEWEB-0109,2020-100B,2026-06-04T00:42:40.800960,13.12442532,.00017028,87.8950,353.2753,92.3931,267.7393,0,U,47259,999,26283,-.81651902E-3,-.281E-5,0
ONEWEB-0110,2020-100C,2026-06-04T01:21:43.031520,13.12445006,.00015792,87.8948,353.2540,80.4782,279.6525,0,U,47260,999,26300,-.13426453E-3,-.36E-6,0
ONEWEB-0111,2020-100D,2026-06-04T02:05:37.220640,13.12443204,.0001783,87.8952,353.2671,81.7044,278.4286,0,U,47261,999,26284,.72423E-3,.273E-5,0
ONEWEB-0114,2020-100E,2026-06-04T02:49:31.993824,13.12444979,.0001794,87.8952,353.2577,102.1340,257.9989,0,U,47262,999,26280,-.12151E-2,-.424E-5,0
ONEWEB-0117,2020-100F,2026-06-04T00:47:33.389376,13.12442029,.00017561,87.8949,353.2664,87.5133,272.6197,0,U,47263,999,26280,-.98416113E-3,-.341E-5,0
ONEWEB-0118,2020-100G,2026-06-04T01:36:21.081888,13.12444017,.00019981,87.8949,353.2623,95.6634,264.4722,0,U,47264,999,26300,.94845799E-3,.354E-5,0
ONEWEB-0119,2020-100H,2026-06-04T02:12:57.109824,13.12442538,.0001621,87.8938,353.2750,82.8912,277.2401,0,U,47265,999,26298,.12445E-2,.46E-5,0
ONEWEB-0120,2020-100J,2026-06-04T02:47:18.148992,13.12444416,.0001637,87.8940,353.2711,96.3351,263.7964,0,U,47266,999,26301,-.11734E-2,-.409E-5,0
ONEWEB-0121,2020-100K,2026-06-04T00:40:14.484288,13.12441884,.00018903,87.8952,353.2738,78.4200,281.7141,0,U,47267,999,26291,-.71744896E-3,-.245E-5,0
ONEWEB-0122,2020-100L,2026-06-04T02:21:29.689920,13.12440849,.0001517,87.8959,353.2651,93.8363,266.2939,0,U,47268,999,26283,-.14802E-3,-.41E-6,0
ONEWEB-0123,2020-100M,2026-06-04T00:25:36.869376,13.12442645,.00018346,87.8942,353.2893,89.7977,270.3362,0,U,47269,999,26296,.30643126E-3,.123E-5,0
ONEWEB-0124,2020-100N,2026-06-04T02:00:45.802944,13.12442880,.0001846,87.8939,353.2785,86.0860,274.0479,0,U,47270,999,26285,.94311E-3,.352E-5,0
ONEWEB-0125,2020-100P,2026-06-04T01:29:02.513760,13.12444591,.00021434,87.8954,353.2654,86.6977,273.4397,0,U,47271,999,26291,-.11289172E-3,-.28E-6,0
ONEWEB-0126,2020-100Q,2026-06-04T01:58:31.304064,13.12441755,.0001734,87.8947,353.2777,90.7451,269.3876,0,U,47272,999,26298,.1056E-2,.393E-5,0
ONEWEB-0127,2020-100R,2026-06-04T01:09:30.731040,13.12443998,.0001726,87.8940,353.2838,89.1351,270.9976,0,U,47273,999,26300,-.82383105E-3,-.284E-5,0
ONEWEB-0128,2020-100S,2026-06-04T01:41:13.746336,13.12443205,.00015736,87.8940,353.2936,83.1746,276.9562,0,U,47274,999,26302,.10849983E-2,.403E-5,0
ONEWEB-0129,2020-100T,2026-06-04T01:11:56.989824,13.12443154,.00017884,87.8950,353.2699,125.4258,234.7038,0,U,47275,999,26295,-.79620951E-3,-.274E-5,0
ONEWEB-0130,2020-100U,2026-06-04T01:51:00.260640,13.12442784,.0001773,87.8950,353.2595,97.4158,262.7172,0,U,47276,999,26292,.10894E-2,.405E-5,0
ONEWEB-0131,2020-100V,2026-06-04T01:46:06.961152,13.12443390,.0001727,87.8940,353.2793,87.5242,272.6085,0,U,47277,999,26296,.11752E-2,.436E-5,0
